{"type": "FeatureCollection", "features": [ {"type": "Feature", "properties": {"norad_id": 34874, "name": "COSMOS 2251 DEB", "group": "cosmos-2251-debris", "lat": -73.87111852649026, "lon": -16.481535644109908, "alt_km": 812.0011462169359, "timestamp": "2025-12-08T08:59:01.161811+00:00", "meta": {"OBJECT_NAME": "COSMOS 2251 DEB", "OBJECT_ID": "1993-036ACM", "EPOCH": "2025-12-07T17:16:42.678624", "MEAN_MOTION": 14.36271972, "ECCENTRICITY": 0.00512294, "INCLINATION": 74.0398, "RA_OF_ASC_NODE": 82.9833, "ARG_OF_PERICENTER": 109.8708, "MEAN_ANOMALY": 15.4541, "EPHEMERIS_TYPE": 0, "CLASSIFICATION_TYPE": "U", "NORAD_CAT_ID": 34874, "ELEMENT_SET_NO": 999, "REV_AT_EPOCH": 86972, "BSTAR": 0.0016207129, "MEAN_MOTION_DOT": 4.784e-05, "MEAN_MOTION_DDOT": 0}, "tle": {"line1": "1 34874U 93036ACM 25341.71993841  .00004784  00000+0  16207-2 0  9994", "line2": "2 34874  74.0398  82.9833 0051229 109.8708  15.4541 14.36271972869728"}}, "geometry": {"type": "Point", "coordinates": [-16.481535644109908, -73.87111852649026]}}, {"type": "Feature", "properties": {"norad_id": 34875, "name": "COSMOS 2251 DEB", "group": "cosmos-2251-debris", "lat": 54.51376607505351, "lon": -37.26708710875993, "alt_km": 734.8788480831681, "timestamp": "2025-12-08T08:59:01.161821+00:00", "meta": {"OBJECT_NAME": "COSMOS 2251 DEB", "OBJECT_ID": "1993-036ACN", "EPOCH": "2025-12-07T12:40:46.799616", "MEAN_MOTION": 14.48898858, "ECCENTRICITY": 0.00160508, "INCLINATION": 74.0432, "RA_OF_ASC_NODE": 167.9784, "ARG_OF_PERICENTER": 291.9404, "MEAN_ANOMALY": 99.1876, "EPHEMERIS_TYPE": 0, "CLASSIFICATION_TYPE": "U", "NORAD_CAT_ID": 34875, "ELEMENT_SET_NO": 999, "REV_AT_EPOCH": 87680, "BSTAR": 0.00075174207, "MEAN_MOTION_DOT": 2.823e-05, "MEAN_MOTION_DDOT": 0}, "tle": {"line1": "1 34875U 93036ACN 25341.52831944  .00002823  00000+0  75174-3 0  9990", "line2": "2 34875  74.0432 167.9784 0016050 291.9404  99.1876 14.48898858876804"}}, "geometry": {"type": "Point", "coordinates": [-37.26708710875993, 54.51376607505351]}}, {"type": "Feature", "properties": {"norad_id": 34878, "name": "COSMOS 2251 DEB", "group": "cosmos-2251-debris", "lat": 71.53360038112619, "lon": 174.80416560192276, "alt_km": 916.3402296787526, "timestamp": "2025-12-08T08:59:01.161832+00:00", "meta": {"OBJECT_NAME": "COSMOS 2251 DEB", "OBJECT_ID": "1993-036ACR", "EPOCH": "2025-12-07T22:40:33.009600", "MEAN_MOTION": 13.44182706, "ECCENTRICITY": 0.04352835, "INCLINATION": 73.9653, "RA_OF_ASC_NODE": 54.93, "ARG_OF_PERICENTER": 39.4007, "MEAN_ANOMALY": 137.997, "EPHEMERIS_TYPE": 0, "CLASSIFICATION_TYPE": "U", "NORAD_CAT_ID": 34878, "ELEMENT_SET_NO": 999, "REV_AT_EPOCH": 81208, "BSTAR": 0.00079219885, "MEAN_MOTION_DOT": 7.93e-06, "MEAN_MOTION_DDOT": 0}, "tle": {"line1": "1 34878U 93036ACR 25341.94482650  .00000793  00000+0  79220-3 0  9995", "line2": "2 34878  73.9653  54.9300 0435283  39.4007 137.9970 13.44182706812085"}}, "geometry": {"type": "Point", "coordinates": [174.80416560192276, 71.53360038112619]}}, {"type": "Feature", "properties": {"norad_id": 34882, "name": "COSMOS 2251 DEB", "group": "cosmos-2251-debris", "lat": -43.51535749408, "lon": 69.69851170212671, "alt_km": 736.2931385895681, "timestamp": "2025-12-08T08:59:01.161842+00:00", "meta": {"OBJECT_NAME": "COSMOS 2251 DEB", "OBJECT_ID": "1993-036ACV", "EPOCH": "2025-12-04T16:53:13.957728", "MEAN_MOTION": 14.61571814, "ECCENTRICITY": 0.00824762, "INCLINATION": 74.0468, "RA_OF_ASC_NODE": 240.9544, "ARG_OF_PERICENTER": 9.9257, "MEAN_ANOMALY": 350.3513, "EPHEMERIS_TYPE": 0, "CLASSIFICATION_TYPE": "U", "NORAD_CAT_ID": 34882, "ELEMENT_SET_NO": 999, "REV_AT_EPOCH": 88407, "BSTAR": 0.0003857555, "MEAN_MOTION_DOT": 1.979e-05, "MEAN_MOTION_DDOT": 0}, "tle": {"line1": "1 34882U 93036ACV 25338.70363377  .00001979  00000+0  38576-3 0  9990", "line2": "2 34882  74.0468 240.9544 0082476   9.9257 350.3513 14.61571814884078"}}, "geometry": {"type": "Point", "coordinates": [69.69851170212671, -43.51535749408]}}, {"type": "Feature", "properties": {"norad_id": 34883, "name": "COSMOS 2251 DEB", "group": "cosmos-2251-debris", "lat": 67.83747425462434, "lon": 114.889811749005, "alt_km": 782.0605410303606, "timestamp": "2025-12-08T08:59:01.161852+00:00", "meta": {"OBJECT_NAME": "COSMOS 2251 DEB", "OBJECT_ID": "1993-036ACW", "EPOCH": "2025-12-07T06:10:00.230304", "MEAN_MOTION": 14.51192807, "ECCENTRICITY": 0.00951496, "INCLINATION": 74.202, "RA_OF_ASC_NODE": 72.9382, "ARG_OF_PERICENTER": 259.0369, "MEAN_ANOMALY": 100.0078, "EPHEMERIS_TYPE": 0, "CLASSIFICATION_TYPE": "U", "NORAD_CAT_ID": 34883, "ELEMENT_SET_NO": 999, "REV_AT_EPOCH": 86360, "BSTAR": 0.0070346389, "MEAN_MOTION_DOT": 0.00029724, "MEAN_MOTION_DDOT": 0}, "tle": {"line1": "1 34883U 93036ACW 25341.25694711  .00029724  00000+0  70346-2 0  9992", "line2": "2 34883  74.2020  72.9382 0095149 259.0369 100.0078 14.51192807863603"}}, "geometry": {"type": "Point", "coordinates": [114.889811749005, 67.83747425462434]}}, {"type": "Feature", "properties": {"norad_id": 34884, "name": "COSMOS 2251 DEB", "group": "cosmos-2251-debris", "lat": 53.53448319590066, "lon": -137.33089175104755, "alt_km": 591.7472126701359, "timestamp": "2025-12-08T08:59:01.161863+00:00", "meta": {"OBJECT_NAME": "COSMOS 2251 DEB", "OBJECT_ID": "1993-036ACX", "EPOCH": "2025-12-07T16:51:53.356032", "MEAN_MOTION": 14.89692454, "ECCENTRICITY": 0.00023398, "INCLINATION": 74.0179, "RA_OF_ASC_NODE": 66.8314, "ARG_OF_PERICENTER": 112.4659, "MEAN_ANOMALY": 10.3246, "EPHEMERIS_TYPE": 0, "CLASSIFICATION_TYPE": "U", "NORAD_CAT_ID": 34884, "ELEMENT_SET_NO": 999, "REV_AT_EPOCH": 87730, "BSTAR": 0.0042276608, "MEAN_MOTION_DOT": 0.00040676, "MEAN_MOTION_DDOT": 0}, "tle": {"line1": "1 34884U 93036ACX 25341.70270088  .00040676  00000+0  42277-2 0  9991", "line2": "2 34884  74.0179  66.8314 0002339 112.4659  10.3246 14.89692454877303"}}, "geometry": {"type": "Point", "coordinates": [-137.33089175104755, 53.53448319590066]}}, {"type": "Feature", "properties": {"norad_id": 34885, "name": "COSMOS 2251 DEB", "group": "cosmos-2251-debris", "lat": -66.26377195978851, "lon": 51.874486910228846, "alt_km": 717.8042861517042, "timestamp": "2025-12-08T08:59:01.161872+00:00", "meta": {"OBJECT_NAME": "COSMOS 2251 DEB", "OBJECT_ID": "1993-036ACY", "EPOCH": "2025-12-07T22:25:13.232352", "MEAN_MOTION": 14.51465059, "ECCENTRICITY": 0.00153676, "INCLINATION": 74.0306, "RA_OF_ASC_NODE": 192.0695, "ARG_OF_PERICENTER": 277.5149, "MEAN_ANOMALY": 195.8255, "EPHEMERIS_TYPE": 0, "CLASSIFICATION_TYPE": "U", "NORAD_CAT_ID": 34885, "ELEMENT_SET_NO": 999, "REV_AT_EPOCH": 87409, "BSTAR": 0.00085883873, "MEAN_MOTION_DOT": 3.409e-05, "MEAN_MOTION_DDOT": 0}, "tle": {"line1": "1 34885U 93036ACY 25341.93418093  .00003409  00000+0  85884-3 0  9992", "line2": "2 34885  74.0306 192.0695 0015367 277.5149 195.8255 14.51465059874092"}}, "geometry": {"type": "Point", "coordinates": [51.874486910228846, -66.26377195978851]}}, {"type": "Feature", "properties": {"norad_id": 34886, "name": "COSMOS 2251 DEB", "group": "cosmos-2251-debris", "lat": 51.49156793964777, "lon": -148.33874274302246, "alt_km": 431.00014850151274, "timestamp": "2025-12-08T08:59:01.161883+00:00", "meta": {"OBJECT_NAME": "COSMOS 2251 DEB", "OBJECT_ID": "1993-036ACZ", "EPOCH": "2025-12-06T20:50:12.525792", "MEAN_MOTION": 15.37603061, "ECCENTRICITY": 0.00307569, "INCLINATION": 73.9508, "RA_OF_ASC_NODE": 193.7093, "ARG_OF_PERICENTER": 18.7929, "MEAN_ANOMALY": 341.4404, "EPHEMERIS_TYPE": 0, "CLASSIFICATION_TYPE": "U", "NORAD_CAT_ID": 34886, "ELEMENT_SET_NO": 999, "REV_AT_EPOCH": 62908, "BSTAR": 0.0027638496, "MEAN_MOTION_DOT": 0.00105044, "MEAN_MOTION_DDOT": 0}, "tle": {"line1": "1 34886U 93036ACZ 25340.86820053  .00105044  00000+0  27638-2 0  9997", "line2": "2 34886  73.9508 193.7093 0030756  18.7929 341.4404 15.37603061629089"}}, "geometry": {"type": "Point", "coordinates": [-148.33874274302246, 51.49156793964777]}}, {"type": "Feature", "properties": {"norad_id": 34907, "name": "COSMOS 2251 DEB", "group": "cosmos-2251-debris", "lat": -69.50912405878682, "lon": 7.622693219959809, "alt_km": 446.5633612114061, "timestamp": "2025-12-08T08:59:01.161892+00:00", "meta": {"OBJECT_NAME": "COSMOS 2251 DEB", "OBJECT_ID": "1993-036ADC", "EPOCH": "2025-12-07T22:24:11.589408", "MEAN_MOTION": 15.3990161, "ECCENTRICITY": 0.00195675, "INCLINATION": 73.9715, "RA_OF_ASC_NODE": 58.8693, "ARG_OF_PERICENTER": 348.0814, "MEAN_ANOMALY": 11.9928, "EPHEMERIS_TYPE": 0, "CLASSIFICATION_TYPE": "U", "NORAD_CAT_ID": 34907, "ELEMENT_SET_NO": 999, "REV_AT_EPOCH": 87899, "BSTAR": 0.0081386591, "MEAN_MOTION_DOT": 0.00340451, "MEAN_MOTION_DDOT": 0}, "tle": {"line1": "1 34907U 93036ADC 25341.93346747  .00340451  00000+0  81387-2 0  9997", "line2": "2 34907  73.9715  58.8693 0019567 348.0814  11.9928 15.39901610878998"}}, "geometry": {"type": "Point", "coordinates": [7.622693219959809, -69.50912405878682]}}, {"type": "Feature", "properties": {"norad_id": 34908, "name": "COSMOS 2251 DEB", "group": "cosmos-2251-debris", "lat": 4.39018301577711, "lon": -149.57842080002496, "alt_km": 785.89985406698, "timestamp": "2025-12-08T08:59:01.161903+00:00", "meta": {"OBJECT_NAME": "COSMOS 2251 DEB", "OBJECT_ID": "1993-036ADD", "EPOCH": "2025-12-07T21:17:31.843968", "MEAN_MOTION": 14.37376037, "ECCENTRICITY": 0.00398997, "INCLINATION": 74.0592, "RA_OF_ASC_NODE": 32.5736, "ARG_OF_PERICENTER": 50.2941, "MEAN_ANOMALY": 124.9128, "EPHEMERIS_TYPE": 0, "CLASSIFICATION_TYPE": "U", "NORAD_CAT_ID": 34908, "ELEMENT_SET_NO": 999, "REV_AT_EPOCH": 87209, "BSTAR": 0.00072225034, "MEAN_MOTION_DOT": 2.152e-05, "MEAN_MOTION_DDOT": 0}, "tle": {"line1": "1 34908U 93036ADD 25341.88717412  .00002152  00000+0  72225-3 0  9998", "line2": "2 34908  74.0592  32.5736 0039899  50.2941 124.9128 14.37376037872092"}}, "geometry": {"type": "Point", "coordinates": [-149.57842080002496, 4.39018301577711]}}]}